{
    "links": {
        "self": "http://www.neowsapp.com/rest/v1/neo/3763550?api_key=iIulBulltgU6a56xZRHN4H3l9WmuAYTsLGpBGhQ2"
    },
    "id": "3763550",
    "neo_reference_id": "3763550",
    "name": "(2016 VB4)",
    "designation": "2016 VB4",
    "nasa_jpl_url": "http://ssd.jpl.nasa.gov/sbdb.cgi?sstr=3763550",
    "absolute_magnitude_h": 23.8,
    "estimated_diameter": {
        "kilometers": {
            "estimated_diameter_min": 0.046190746,
            "estimated_diameter_max": 0.1032856481
        },
        "meters": {
            "estimated_diameter_min": 46.1907460282,
            "estimated_diameter_max": 103.2856480504
        },
        "miles": {
            "estimated_diameter_min": 0.0287015901,
            "estimated_diameter_max": 0.0641787064
        },
        "feet": {
            "estimated_diameter_min": 151.544447199,
            "estimated_diameter_max": 338.8636855496
        }
    },
    "is_potentially_hazardous_asteroid": false,
    "close_approach_data": [
        {
            "close_approach_date": "2011-11-25",
            "close_approach_date_full": "2011-Nov-25 20:43",
            "epoch_date_close_approach": 1322253780000,
            "relative_velocity": {
                "kilometers_per_second": "30.6118943309",
                "kilometers_per_hour": "110202.8195911802",
                "miles_per_hour": "68475.7464287531"
            },
            "miss_distance": {
                "astronomical": "0.4269209069",
                "lunar": "166.0722327841",
                "kilometers": "63866458.330708303",
                "miles": "39684776.9991404614"
            },
            "orbiting_body": "Earth"
        },
        {
            "close_approach_date": "2013-04-10",
            "close_approach_date_full": "2013-Apr-10 15:27",
            "epoch_date_close_approach": 1365607620000,
            "relative_velocity": {
                "kilometers_per_second": "26.3205389093",
                "kilometers_per_hour": "94753.9400733594",
                "miles_per_hour": "58876.4134861382"
            },
            "miss_distance": {
                "astronomical": "0.2930438705",
                "lunar": "113.9940656245",
                "kilometers": "43838738.843355835",
                "miles": "27240129.175687123"
            },
            "orbiting_body": "Earth"
        },
        {
            "close_approach_date": "2016-11-04",
            "close_approach_date_full": "2016-Nov-04 21:01",
            "epoch_date_close_approach": 1478293260000,
            "relative_velocity": {
                "kilometers_per_second": "17.58275866",
                "kilometers_per_hour": "63297.9311758967",
                "miles_per_hour": "39330.8728464898"
            },
            "miss_distance": {
                "astronomical": "0.0101264233",
                "lunar": "3.9391786637",
                "kilometers": "1514891.356398371",
                "miles": "941309.8397486798"
            },
            "orbiting_body": "Earth"
        }
    ],
    "orbital_data": {
        "orbit_id": "5",
        "orbit_determination_date": "2017-04-06 08:22:17",
        "first_observation_date": "2016-11-08",
        "last_observation_date": "2016-11-19",
        "data_arc_in_days": 11,
        "observations_used": 101,
        "orbit_uncertainty": "8",
        "minimum_orbit_intersection": ".00945561",
        "jupiter_tisserand_invariant": "4.593",
        "epoch_osculation": "2457703.5",
        "eccentricity": ".5581780594250936",
        "semi_major_axis": "1.391592016797835",
        "inclination": "5.993010592474977",
        "ascending_node_longitude": "47.98870535252681",
        "orbital_period": "599.6064830120105",
        "perihelion_distance": ".6148358853501672",
        "perihelion_argument": "261.1975990613692",
        "aphelion_distance": "2.168348148245502",
        "perihelion_time": "2457644.586470032901",
        "mean_anomaly": "35.37131667025491",
        "mean_motion": ".6003937752500734",
        "equinox": "J2000",
        "orbit_class": {
            "orbit_class_type": "APO",
            "orbit_class_description": "Near-Earth asteroid orbits which cross the Earth’s orbit similar to that of 1862 Apollo",
            "orbit_class_range": "a (semi-major axis) > 1.0 AU; q (perihelion) < 1.017 AU"
        }
    },
    "is_sentry_object": false
}